[Satellite]
VERSION=1.1
NAME=AMC-18
NICKNAME=AMC-18
TLE1=1 29644U 06054B   15054.28187685 -.00000115  00000-0  10000-3 0  9992
TLE2=2 29644   0.0351 283.6596 0002489  43.8759 181.8049  1.00271405 30121
